{"type":"FeatureCollection","features":[{"type":"Feature","id":18,"geometry":{"type":"Point","coordinates":[-40.319868909850811,-20.301178636203915]},"properties":{"nome":"12-PEV-SANTA CECILIA 1","pontoReferencia":"EM FRENTE IGREJA CATÓLICA","logradouro":"RUA HONÓRIO MAGALHÃES RAMALHO","numero":null,"bairro":"SANTA CECÍLIA","objectid":18,"codGeo":"12","codBairro":59}},{"type":"Feature","id":33,"geometry":{"type":"Point","coordinates":[-40.28972801131161,-20.275721767315598]},"properties":{"nome":"52-PEV/MATA DA PRAIA 3","pontoReferencia":"Esquina com a rua CONSTRUTOR DAVID TEIXEIRA","logradouro":"PC  BENEDITO RODRIGUES DA CRUZ","numero":null,"bairro":"MATA DA PRAIA","objectid":33,"codGeo":"52","codBairro":39}},{"type":"Feature","id":50,"geometry":{"type":"Point","coordinates":[-40.259091025216449,-20.26326327675411]},"properties":{"nome":"33-PEV/JD CAMBURI-AV EXPEDICIONÁRIOS","pontoReferencia":"esquina com a rua boulevard caraibas","logradouro":"AV  DOS EXPEDICIONÁRIOS","numero":null,"bairro":"JARDIM CAMBURI","objectid":50,"codGeo":"33","codBairro":31}},{"type":"Feature","id":226,"geometry":{"type":"Point","coordinates":[-40.259802829236328,-20.261016432472907]},"properties":{"nome":"31-PEV- CMEI ANA MARIA CHAVES COLARES","pontoReferencia":"PROX CMEI ANA MARIA COLARE","logradouro":"RUA OSWALDO BASTOS DE SOUZA FREITAS","numero":null,"bairro":"JARDIM CAMBURI","objectid":226,"codGeo":"31","codBairro":31}},{"type":"Feature","id":241,"geometry":{"type":"Point","coordinates":[-40.316700215478598,-20.307750847283884]},"properties":{"nome":"10 -PEV-BAIRRO DE LOURDES 1","pontoReferencia":"Ao lado da regional 3","logradouro":"RUA SANTA RITA DE CÁSSIA","numero":null,"bairro":"DE LOURDES","objectid":241,"codGeo":"10","codBairro":35}},{"type":"Feature","id":244,"geometry":{"type":"Point","coordinates":[-40.292131107633466,-20.298491275949768]},"properties":{"nome":"18-PEV/PRAIA DO CANTO - SATURNINO BRITO","pontoReferencia":"ESQ C A CELSO CALMON  FRENTE H  BRISTOL","logradouro":"AV  SATURNINO DE BRITO","numero":null,"bairro":"PRAIA DO CANTO","objectid":244,"codGeo":"18","codBairro":52}},{"type":"Feature","id":274,"geometry":{"type":"Point","coordinates":[-40.329478379480577,-20.306454458009721]},"properties":{"nome":"07-PEV- FRADINHOS 1","pontoReferencia":"Pracinha do ponto final de Fradinhos","logradouro":"RUA ZEMÍNIO DE OLIVEIRA","numero":null,"bairro":"FRADINHOS","objectid":274,"codGeo":"07","codBairro":17}},{"type":"Feature","id":278,"geometry":{"type":"Point","coordinates":[-40.301091079459006,-20.286128860962815]},"properties":{"nome":"43-PEV/JARDIM DA PENHA - R EUGENILIO RAMOS","pontoReferencia":"prox ponto final ônibus","logradouro":"RUA EUGENÍLIO RAMOS","numero":null,"bairro":"JARDIM DA PENHA","objectid":278,"codGeo":"43","codBairro":32}},{"type":"Feature","id":3491,"geometry":{"type":"Point","coordinates":[-40.299025171381246,-20.281766831242539]},"properties":{"nome":"42-PEV- JD PENHA- PÇA WOLGANO NETO","pontoReferencia":"praça wolgano neto","logradouro":"PC  WOLGHANO NETTO","numero":null,"bairro":"JARDIM DA PENHA","objectid":3491,"codGeo":"42","codBairro":32}},{"type":"Feature","id":5491,"geometry":{"type":"Point","coordinates":[-40.337628515332597,-20.319948359527324]},"properties":{"nome":"01-PEV/CATEDRAL","pontoReferencia":"CATEDRAL","logradouro":"ESC PERNAMBUCO","numero":null,"bairro":"CENTRO","objectid":5491,"codGeo":"01","codBairro":11}},{"type":"Feature","id":5892,"geometry":{"type":"Point","coordinates":[-40.309423897666498,-20.315755973171793]},"properties":{"nome":"05-PEV/ ESCOLA SÃO DOMINGOS","pontoReferencia":"EM FRENTE ESCOLA SÃO DOMINGOS","logradouro":"AV  JOUBERT DE BARROS","numero":null,"bairro":"BENTO FERREIRA","objectid":5892,"codGeo":"05","codBairro":7}},{"type":"Feature","id":6292,"geometry":{"type":"Point","coordinates":[-40.318708516273553,-20.295652968496594]},"properties":{"nome":"14-PEV/PÇA SÃO JOSÉ OPERÁRIO","pontoReferencia":"PRAÇA SÃO JOSÉ OPERÁRIO","logradouro":"PC  SÃO JOSÉ OPERÁRIO","numero":null,"bairro":"MARUÍPE","objectid":6292,"codGeo":"14","codBairro":38}},{"type":"Feature","id":6691,"geometry":{"type":"Point","coordinates":[-40.311754794965438,-20.2895467436548]},"properties":{"nome":"13-PEV PARQUE BARREIROS","pontoReferencia":"PORTÃO DE ENTRADA PARQUE","logradouro":"PC  BARREIROS","numero":null,"bairro":"JOANA D´ARC","objectid":6691,"codGeo":"13","codBairro":33}},{"type":"Feature","id":8291,"geometry":{"type":"Point","coordinates":[-40.258443558582194,-20.261773398815691]},"properties":{"nome":"32-PEV/JD CAMBURI-AV EXPEDICIONÁRIOS","pontoReferencia":"EM FRENTE ADMINISTRAÇÃO CONDOMÍNIO ATLANTICA VILLE","logradouro":"AV  DOS EXPEDICIONÁRIOS","numero":null,"bairro":"JARDIM CAMBURI","objectid":8291,"codGeo":"32","codBairro":31}},{"type":"Feature","id":10691,"geometry":{"type":"Point","coordinates":[-40.265531160108694,-20.258679108789643]},"properties":{"nome":"38-PEV/AV  ITALINA P MOTA/PÇA BENÍCIO GONÇALVES","pontoReferencia":"PÇA BENÍCIO GONÇALVES","logradouro":"RUA ITALINA PEREIRA MOTTA","numero":null,"bairro":"JARDIM CAMBURI","objectid":10691,"codGeo":"38","codBairro":31}},{"type":"Feature","id":11893,"geometry":{"type":"Point","coordinates":[-40.269508193953108,-20.259133147828933]},"properties":{"nome":"39-PEV/AV CARLOS MARTINS/RANULPHO B SANTOS","pontoReferencia":"ESQUINA COM RANULPHO B SANTOS","logradouro":"RUA CARLOS MARTINS","numero":null,"bairro":"JARDIM CAMBURI","objectid":11893,"codGeo":"39","codBairro":31}},{"type":"Feature","id":15492,"geometry":{"type":"Point","coordinates":[-40.290159822921041,-20.276118972954215]},"properties":{"nome":"51-PEV/ MATA DA PRAIA-R FREDERICO PRETTI","pontoReferencia":"PÇAMÁRCIO MANOEL DE AZEVEDO SARMENTO","logradouro":"RUA FREDERICO PRETTI","numero":"51","bairro":"MATA DA PRAIA","objectid":15492,"codGeo":"51","codBairro":39}},{"type":"Feature","id":16291,"geometry":{"type":"Point","coordinates":[-40.295178688542997,-20.277399157642986]},"properties":{"nome":"53-PEV/PARQUE PEDRA CEBOLA","pontoReferencia":"DENTRO PARQUE PEDRA CEBOLA","logradouro":"RUA VICENTE DE OLIVEIRA","numero":null,"bairro":"MATA DA PRAIA","objectid":16291,"codGeo":"53","codBairro":39}},{"type":"Feature","id":21491,"geometry":{"type":"Point","coordinates":[-40.31993516014974,-20.308733230731228]},"properties":{"nome":"09-PEV- PRAÇA  MARIO ARISTIDES FREIRE","pontoReferencia":null,"logradouro":"PC  MÁRIO ARISTIDES FREIRE","numero":null,"bairro":"JUCUTUQUARA","objectid":21491,"codGeo":"09","codBairro":34}},{"type":"Feature","id":23091,"geometry":{"type":"Point","coordinates":[-40.268481736195987,-20.257117057930945]},"properties":{"nome":"34-R Filogonio Motta","pontoReferencia":"em frente CMEI João Pedro de Aguiar","logradouro":"RUA FILOGÔNIO MOTTA","numero":null,"bairro":"JARDIM CAMBURI","objectid":23091,"codGeo":"34","codBairro":31}},{"type":"Feature","id":24691,"geometry":{"type":"Point","coordinates":[-40.341700168116155,-20.318849977289172]},"properties":{"nome":"02-PEV-PARQUE MOSCOSO","pontoReferencia":"PARQUE MOSCOSO","logradouro":"AV  CLETO NUNES","numero":null,"bairro":"CENTRO","objectid":24691,"codGeo":"02","codBairro":11}},{"type":"Feature","id":25091,"geometry":{"type":"Point","coordinates":[-40.305252122277402,-20.311686879562853]},"properties":{"nome":"06-PEV CESAR HILAL 1","pontoReferencia":"ESQUINA LEITÃO DA SILVA","logradouro":"AV  CEZAR HILAL","numero":null,"bairro":"BENTO FERREIRA","objectid":25091,"codGeo":"06","codBairro":7}},{"type":"Feature","id":25491,"geometry":{"type":"Point","coordinates":[-40.329457051148111,-20.306658093607968]},"properties":{"nome":"08-PEV- FRADINHOS 2","pontoReferencia":"PONTO FINAL","logradouro":"PC  ILDA DE LIMA PASSOS","numero":null,"bairro":"FRADINHOS","objectid":25491,"codGeo":"08","codBairro":17}},{"type":"Feature","id":25494,"geometry":{"type":"Point","coordinates":[-40.321213878675522,-20.295602388736022]},"properties":{"nome":"16-PEV TABUAZEIRO 1","pontoReferencia":"PROX SUPERM ELDORADO","logradouro":"AV  CORONEL JOSÉ MARTINS DE FIGUEIREDO","numero":null,"bairro":"TABUAZEIRO","objectid":25494,"codGeo":"16","codBairro":74}},{"type":"Feature","id":26291,"geometry":{"type":"Point","coordinates":[-40.304360315828056,-20.296120036351248]},"properties":{"nome":"22-PEV SANTA LUCIA AV LEITÃO SILVA","pontoReferencia":"EM FRENTE UNIMED","logradouro":"AV  LEITÃO DA SILVA","numero":null,"bairro":"SANTA LÚCIA","objectid":26291,"codGeo":"22","codBairro":61}},{"type":"Feature","id":27493,"geometry":{"type":"Point","coordinates":[-40.295195808455993,-20.277474707904691]},"properties":{"nome":"54-PEV- PARQUE PEDRA CEBOLA","pontoReferencia":"DENTRO PARUQE PEDRA CEBOLA","logradouro":"RUA VICENTE DE OLIVEIRA","numero":null,"bairro":"MATA DA PRAIA","objectid":27493,"codGeo":"54","codBairro":39}},{"type":"Feature","id":28293,"geometry":{"type":"Point","coordinates":[-40.287868889934664,-20.273883203139281]},"properties":{"nome":"59-PEV-PÇA ARISTÓBOLO I FERREIRA EM FRENTE GUARITA","pontoReferencia":"EM FRENTE GUARITA","logradouro":"PC  MARIEN CALIXTE","numero":null,"bairro":"MATA DA PRAIA","objectid":28293,"codGeo":"59","codBairro":39}},{"type":"Feature","id":28691,"geometry":{"type":"Point","coordinates":[-40.287512927644549,-20.274646099714939]},"properties":{"nome":"58-PEV-PRAÇA MARIEN CALIXTE- MATA DA PRAIA","pontoReferencia":"PÇA MARIEN CALIXTE- RUA ANTONIO RIBEIRO","logradouro":"PC  MARIEN CALIXTE","numero":"58","bairro":"MATA DA PRAIA","objectid":28691,"codGeo":"58","codBairro":39}},{"type":"Feature","id":32291,"geometry":{"type":"Point","coordinates":[-40.353770773759301,-20.306347288987446]},"properties":{"nome":"106-STO ANTONIO -Av Adelpho monjardim s/n","pontoReferencia":"em frente bar santo botequim","logradouro":"AV  ADELPHO POLI MONJARDIM","numero":"106","bairro":"SANTO ANTÔNIO","objectid":32291,"codGeo":"106","codBairro":67}},{"type":"Feature","id":32691,"geometry":{"type":"Point","coordinates":[-40.291305275466009,-20.277759192606595]},"properties":{"nome":"100-PEV- pça Jacob Suaid","pontoReferencia":"rua Lauro Soares Machado","logradouro":"PC  JACOB SUAID","numero":"100-PEV","bairro":"MATA DA PRAIA","objectid":32691,"codGeo":"100","codBairro":39}},{"type":"Feature","id":32692,"geometry":{"type":"Point","coordinates":[-40.265053765617779,-20.262434386462704]},"properties":{"nome":"101-PEV- R Paschoal Delmaestro","pontoReferencia":"Ao lado suoermercado Epa Plus","logradouro":"RUA PASCHOAL DELMAESTRO","numero":"101-PEV","bairro":"JARDIM CAMBURI","objectid":32692,"codGeo":"101","codBairro":31}},{"type":"Feature","id":32693,"geometry":{"type":"Point","coordinates":[-40.320732352179505,-20.31190847326652]},"properties":{"nome":"103-PEV Jucutuquara","pontoReferencia":"PRÓX FABRICA 747","logradouro":"AV  VITÓRIA","numero":"103-PEV","bairro":"JUCUTUQUARA","objectid":32693,"codGeo":"103","codBairro":34}},{"type":"Feature","id":33091,"geometry":{"type":"Point","coordinates":[-40.289437342740392,-20.274835509356709]},"properties":{"nome":"102-PEV Pça jacob suaid 2","pontoReferencia":"Esquina com r João Honorato","logradouro":"PC  JACOB SUAID","numero":"102-PEV","bairro":"MATA DA PRAIA","objectid":33091,"codGeo":"102","codBairro":39}},{"type":"Feature","id":33092,"geometry":{"type":"Point","coordinates":[-40.29919506546905,-20.260967523266743]},"properties":{"nome":"104-PEV Maria Ortiz","pontoReferencia":"PRÓX CENTRO ESPORTIVO GOIABEIRAS","logradouro":"AV  JERÔNIMO VERVLOET","numero":"104-PEV","bairro":"MARIA ORTIZ","objectid":33092,"codGeo":"104","codBairro":37}},{"type":"Feature","id":33892,"geometry":{"type":"Point","coordinates":[-40.295122672012525,-20.28696998988503]},"properties":{"nome":"71-PÇA PHILOGOMIRO LANES","pontoReferencia":null,"logradouro":"PC  PHILOGOMIRO LANNES","numero":null,"bairro":"JARDIM DA PENHA","objectid":33892,"codGeo":"71","codBairro":32}},{"type":"Feature","id":33893,"geometry":{"type":"Point","coordinates":[-40.294451809272736,-20.286726346212898]},"properties":{"nome":"72-PC PHILOGOMIRO LANES","pontoReferencia":null,"logradouro":"PC  PHILOGOMIRO LANNES","numero":null,"bairro":"JARDIM DA PENHA","objectid":33893,"codGeo":"72","codBairro":32}},{"type":"Feature","id":35891,"geometry":{"type":"Point","coordinates":[-40.294038162768182,-20.282675254161351]},"properties":{"nome":"PEV pç Regina Frigeri","pontoReferencia":"Em frente supermercado BH","logradouro":"PC  REGINA FRIGERI FURNO","numero":null,"bairro":"JARDIM DA PENHA","objectid":35891,"codGeo":"200","codBairro":32}},{"type":"Feature","id":36291,"geometry":{"type":"Point","coordinates":[-40.306975757474028,-20.315077941993412]},"properties":{"nome":"ecoposto Ginásio do DED","pontoReferencia":"Ginásio DED","logradouro":"RUA CORONEL SCHWAB FILHO","numero":null,"bairro":"BENTO FERREIRA","objectid":36291,"codGeo":"201","codBairro":7}}]}